$$SOE
2460154.500000000, A.D. 2023-Jul-29 00:00:00.0000, -2.521097039691401E+08, -2.677622845009309E+08, -3.832655332947105E+06,
2460161.500000000, A.D. 2023-Aug-05 00:00:00.0000, -2.442184471376933E+08, -2.749848868455043E+08, -4.267975204940796E+06,
2460168.500000000, A.D. 2023-Aug-12 00:00:00.0000, -2.360889779319191E+08, -2.819392159269076E+08, -4.699129246912330E+06,
2460175.500000000, A.D. 2023-Aug-19 00:00:00.0000, -2.277291595974047E+08, -2.886184038545956E+08, -5.125695250063166E+06,
2460182.500000000, A.D. 2023-Aug-26 00:00:00.0000, -2.191469993621053E+08, -2.950157392499326E+08, -5.547253325691432E+06,
2460189.500000000, A.D. 2023-Sep-02 00:00:00.0000, -2.103506503703065E+08, -3.011246666370494E+08, -5.963385839817911E+06,
2460196.500000000, A.D. 2023-Sep-09 00:00:00.0000, -2.013484138815030E+08, -3.069387863298436E+08, -6.373677366586760E+06,
2460203.500000000, A.D. 2023-Sep-16 00:00:00.0000, -1.921487415501285E+08, -3.124518548888980E+08, -6.777714681412056E+06,
2460210.500000000, A.D. 2023-Sep-23 00:00:00.0000, -1.827602373536848E+08, -3.176577858777872E+08, -7.175086809443444E+06,
2460217.500000000, A.D. 2023-Sep-30 00:00:00.0000, -1.731916594923620E+08, -3.225506497444318E+08, -7.565385001703486E+06,
2460224.500000000, A.D. 2023-Oct-07 00:00:00.0000, -1.634519245960086E+08, -3.271246733865315E+08, -7.948202468228444E+06,
2460231.500000000, A.D. 2023-Oct-14 00:00:00.0000, -1.535501131794616E+08, -3.313742427326903E+08, -8.323134235431552E+06,
2460238.500000000, A.D. 2023-Oct-21 00:00:00.0000, -1.434954730996284E+08, -3.352939067584466E+08, -8.689777293948963E+06,
2460245.500000000, A.D. 2023-Oct-28 00:00:00.0000, -1.332974224210625E+08, -3.388783806989688E+08, -9.047730722483456E+06,
2460252.500000000, A.D. 2023-Nov-04 00:00:00.0000, -1.229655529208093E+08, -3.421225492495289E+08, -9.396595736730114E+06,
2460259.500000000, A.D. 2023-Nov-11 00:00:00.0000, -1.125096340337018E+08, -3.450214703741536E+08, -9.735975729549482E+06,
2460266.500000000, A.D. 2023-Nov-18 00:00:00.0000, -1.019396169948171E+08, -3.475703798078461E+08, -1.006547632884598E+07,
2460273.500000000, A.D. 2023-Nov-25 00:00:00.0000, -9.126563907988168E+07, -3.497646962530090E+08, -1.038470547934777E+07,
2460280.500000000, A.D. 2023-Dec-02 00:00:00.0000, -8.049802788769117E+07, -3.516000273072466E+08, -1.069327355328749E+07,
2460287.500000000, A.D. 2023-Dec-09 00:00:00.0000, -6.964730555808204E+07, -3.530721762087051E+08, -1.099079350341302E+07,
2460294.500000000, A.D. 2023-Dec-16 00:00:00.0000, -5.872419260723796E+07, -3.541771494135116E+08, -1.127688108518885E+07,
2460301.500000000, A.D. 2023-Dec-23 00:00:00.0000, -4.773961099818108E+07, -3.549111643448440E+08, -1.155115512564181E+07,
2460308.500000000, A.D. 2023-Dec-30 00:00:00.0000, -3.670468774958156E+07, -3.552706562907046E+08, -1.181323763200690E+07,
2460315.500000000, A.D. 2024-Jan-06 00:00:00.0000, -2.563076081365118E+07, -3.552522868362703E+08, -1.206275377260999E+07,
2460322.500000000, A.D. 2024-Jan-13 00:00:00.0000, -1.452938400354929E+07, -3.548529556647922E+08, -1.229933217110547E+07,
2460329.500000000, A.D. 2024-Jan-20 00:00:00.0000, -3.412329696583178E+06, -3.540698126727068E+08, -1.252260537673652E+07,
2460336.500000000, A.D. 2024-Jan-27 00:00:00.0000, 7.708408711778203E+06, -3.529002697764943E+08, -1.273221027369830E+07,
2460343.500000000, A.D. 2024-Feb-03 00:00:00.0000, 1.882061423340606E+07, -3.513420133883216E+08, -1.292778847035980E+07,
2460350.500000000, A.D. 2024-Feb-10 00:00:00.0000, 2.991184393338187E+07, -3.493930178793054E+08, -1.310898672015916E+07,
2460357.500000000, A.D. 2024-Feb-17 00:00:00.0000, 4.096942700263144E+07, -3.470515600481892E+08, -1.327545738880749E+07,
2460364.500000000, A.D. 2024-Feb-24 00:00:00.0000, 5.198046336568548E+07, -3.443162346021876E+08, -1.342685897238687E+07,
2460371.500000000, A.D. 2024-Mar-02 00:00:00.0000, 6.293182293157118E+07, -3.411859706986911E+08, -1.356285667402397E+07,
2460378.500000000, A.D. 2024-Mar-09 00:00:00.0000, 7.381014571332404E+07, -3.376600496212842E+08, -1.368312305915609E+07,
2460385.500000000, A.D. 2024-Mar-16 00:00:00.0000, 8.460184330860940E+07, -3.337381233989777E+08, -1.378733881183341E+07,
2460392.500000000, A.D. 2024-Mar-23 00:00:00.0000, 9.529310174633461E+07, -3.294202332649078E+08, -1.387519349482448E+07,
2460399.500000000, A.D. 2024-Mar-30 00:00:00.0000, 1.058698835740455E+08, -3.247068279864842E+08, -1.394638611345552E+07,
2460406.500000000, A.D. 2024-Apr-06 00:00:00.0000, 1.163179295624364E+08, -3.195987854346414E+08, -1.400062578506291E+07,
2460413.500000000, A.D. 2024-Apr-13 00:00:00.0000, 1.266227637038852E+08, -3.140974365478554E+08, -1.403763277410781E+07,
2460420.500000000, A.D. 2024-Apr-20 00:00:00.0000, 1.367697006848861E+08, -3.082045889959330E+08, -1.405713958893239E+07,
2460427.500000000, A.D. 2024-Apr-27 00:00:00.0000, 1.467438544548213E+08, -3.019225510720969E+08, -1.405889204851975E+07,
2460434.500000000, A.D. 2024-May-04 00:00:00.0000, 1.565301481272945E+08, -2.952541564691283E+08, -1.404265038620730E+07,
2460441.500000000, A.D. 2024-May-11 00:00:00.0000, 1.661133256089356E+08, -2.882027899796766E+08, -1.400819042166635E+07,
2460448.500000000, A.D. 2024-May-18 00:00:00.0000, 1.754779652006003E+08, -2.807724140221795E+08, -1.395530480763352E+07,
2460455.500000000, A.D. 2024-May-25 00:00:00.0000, 1.846084953631305E+08, -2.729675959041548E+08, -1.388380435452914E+07,
2460462.500000000, A.D. 2024-Jun-01 00:00:00.0000, 1.934892128796875E+08, -2.647935357632464E+08, -1.379351944295566E+07,
2460469.500000000, A.D. 2024-Jun-08 00:00:00.0000, 2.021043038392998E+08, -2.562560950707862E+08, -1.368430154764451E+07,
2460476.500000000, A.D. 2024-Jun-15 00:00:00.0000, 2.104378680226636E+08, -2.473618249956603E+08, -1.355602486297964E+07,
2460483.500000000, A.D. 2024-Jun-22 00:00:00.0000, 2.184739458629863E+08, -2.381179932734238E+08, -1.340858783883049E+07,
2460490.500000000, A.D. 2024-Jun-29 00:00:00.0000, 2.261965460304394E+08, -2.285326111903124E+08, -1.324191457697207E+07,
2460497.500000000, A.D. 2024-Jul-06 00:00:00.0000, 2.335896764483601E+08, -2.186144629071077E+08, -1.305595652774820E+07,
2460504.500000000, A.D. 2024-Jul-13 00:00:00.0000, 2.406373808474607E+08, -2.083731340227600E+08, -1.285069442882028E+07,
2460511.500000000, A.D. 2024-Jul-20 00:00:00.0000, 2.473237790167093E+08, -1.978190379246696E+08, -1.262614020237774E+07,
2460518.500000000, A.D. 2024-Jul-27 00:00:00.0000, 2.536331102190887E+08, -1.869634405480196E+08, -1.238233881992948E+07,
2460525.500000000, A.D. 2024-Aug-03 00:00:00.0000, 2.595497801444598E+08, -1.758184835479804E+08, -1.211937017959154E+07,
2460532.500000000, A.D. 2024-Aug-10 00:00:00.0000, 2.650584116341607E+08, -1.643972054849538E+08, -1.183735099880911E+07,
2460539.500000000, A.D. 2024-Aug-17 00:00:00.0000, 2.701438992560252E+08, -1.527135605649969E+08, -1.153643671028135E+07,
2460546.500000000, A.D. 2024-Aug-24 00:00:00.0000, 2.747914677427716E+08, -1.407824344909772E+08, -1.121682334829345E+07,
2460553.500000000, A.D. 2024-Aug-31 00:00:00.0000, 2.789867343385728E+08, -1.286196569880499E+08, -1.087874942157017E+07,
2460560.500000000, A.D. 2024-Sep-07 00:00:00.0000, 2.827157752890616E+08, -1.162420103460649E+08, -1.052249777402383E+07,
2460567.500000000, A.D. 2024-Sep-14 00:00:00.0000, 2.859651963774129E+08, -1.036672324281698E+08, -1.014839733558536E+07,
2460574.500000000, A.D. 2024-Sep-21 00:00:00.0000, 2.887222052375137E+08, -9.091401317515679E+07, -9.756824517588969E+06,
2460581.500000000, A.D. 2024-Sep-28 00:00:00.0000, 2.909746846357648E+08, -7.800198727757488E+07, -9.348204445676178E+06,
2460588.500000000, A.D. 2024-Oct-05 00:00:00.0000, 2.927112699824993E+08, -6.495172246039984E+07, -8.923012339449774E+06,
2460595.500000000, A.D. 2024-Oct-12 00:00:00.0000, 2.939214302210291E+08, -5.178469986519675E+07, -8.481774733087368E+06,
2460602.500000000, A.D. 2024-Oct-19 00:00:00.0000, 2.945955497628595E+08, -3.852328629966030E+07, -8.025070367699068E+06,
2460609.500000000, A.D. 2024-Oct-26 00:00:00.0000, 2.947250107613565E+08, -2.519069869844078E+07, -7.553530786273819E+06,
2460616.500000000, A.D. 2024-Nov-02 00:00:00.0000, 2.943022752135555E+08, -1.181096054239965E+07, -7.067840635020288E+06,
2460623.500000000, A.D. 2024-Nov-09 00:00:00.0000, 2.933209661329197E+08, 1.591150113094591E+06, -6.568737646868349E+06,
2460630.500000000, A.D. 2024-Nov-16 00:00:00.0000, 2.917759468873516E+08, 1.499016123949340E+07, -6.057012279374732E+06,
2460637.500000000, A.D. 2024-Nov-23 00:00:00.0000, 2.896633977506210E+08, 2.835997614513261E+07, -5.533506987451174E+06,
2460644.500000000, A.D. 2024-Nov-30 00:00:00.0000, 2.869808888189548E+08, 4.167395144959456E+07, -4.999115128999088E+06,
2460651.500000000, A.D. 2024-Dec-07 00:00:00.0000, 2.837274485984527E+08, 5.490498399350429E+07, -4.454779488065479E+06,
2460658.500000000, A.D. 2024-Dec-14 00:00:00.0000, 2.799036264166167E+08, 6.802560761559328E+07, -3.901490237467196E+06,
2460665.500000000, A.D. 2024-Dec-21 00:00:00.0000, 2.755115451916804E+08, 8.100809812029080E+07, -3.340282219415717E+06,
2460672.500000000, A.D. 2024-Dec-28 00:00:00.0000, 2.705549454199799E+08, 9.382458286534467E+07, -2.772231965117540E+06,
2460679.500000000, A.D. 2025-Jan-04 00:00:00.0000, 2.650392219162656E+08, 1.064471565788875E+08, -2.198454501356907E+06,
2460686.500000000, A.D. 2025-Jan-11 00:00:00.0000, 2.589714505185299E+08, 1.188480041319834E+08, -1.620099651126713E+06,
2460693.500000000, A.D. 2025-Jan-18 00:00:00.0000, 2.523604029848500E+08, 1.309995282423991E+08, -1.038347837340087E+06,
2460700.500000000, A.D. 2025-Jan-25 00:00:00.0000, 2.452165495928294E+08, 1.428744803777498E+08, -4.544054779533446E+05,
2460707.500000000, A.D. 2025-Feb-01 00:00:00.0000, 2.375520490483215E+08, 1.544460934462934E+08, 1.304999718285352E+05,
2460714.500000000, A.D. 2025-Feb-08 00:00:00.0000, 2.293807253592578E+08, 1.656882148152062E+08, 7.151252828453481E+05,
$$EOE